{
    "links": {
        "self": "http://www.neowsapp.com/rest/v1/neo/3102704?api_key=iIulBulltgU6a56xZRHN4H3l9WmuAYTsLGpBGhQ2"
    },
    "id": "3102704",
    "neo_reference_id": "3102704",
    "name": "(2001 YC1)",
    "designation": "2001 YC1",
    "nasa_jpl_url": "http://ssd.jpl.nasa.gov/sbdb.cgi?sstr=3102704",
    "absolute_magnitude_h": 24.133,
    "estimated_diameter": {
        "kilometers": {
            "estimated_diameter_min": 0.0396236954,
            "estimated_diameter_max": 0.0886012765
        },
        "meters": {
            "estimated_diameter_min": 39.6236954164,
            "estimated_diameter_max": 88.6012764708
        },
        "miles": {
            "estimated_diameter_min": 0.0246210152,
            "estimated_diameter_max": 0.0550542638
        },
        "feet": {
            "estimated_diameter_min": 129.99900487,
            "estimated_diameter_max": 290.6866118966
        }
    },
    "is_potentially_hazardous_asteroid": false,
    "close_approach_data": [
        {
            "close_approach_date": "2001-12-19",
            "close_approach_date_full": "2001-Dec-19 10:53",
            "epoch_date_close_approach": 1008759180000,
            "relative_velocity": {
                "kilometers_per_second": "12.539316111",
                "kilometers_per_hour": "45141.5379996662",
                "miles_per_hour": "28049.1962087371"
            },
            "miss_distance": {
                "astronomical": "0.0402349669",
                "lunar": "15.6514021241",
                "kilometers": "6019065.347760503",
                "miles": "3740073.7775728214"
            },
            "orbiting_body": "Earth"
        },
        {
            "close_approach_date": "2002-06-20",
            "close_approach_date_full": "2002-Jun-20 23:53",
            "epoch_date_close_approach": 1024617180000,
            "relative_velocity": {
                "kilometers_per_second": "10.5813098736",
                "kilometers_per_hour": "38092.7155450849",
                "miles_per_hour": "23669.3320563335"
            },
            "miss_distance": {
                "astronomical": "0.3797570756",
                "lunar": "147.7255024084",
                "kilometers": "56810849.627188972",
                "miles": "35300625.0466009336"
            },
            "orbiting_body": "Earth"
        },
        {
            "close_approach_date": "2099-12-02",
            "close_approach_date_full": "2099-Dec-02 07:42",
            "epoch_date_close_approach": 4099880520000,
            "relative_velocity": {
                "kilometers_per_second": "22.4788610809",
                "kilometers_per_hour": "80923.8998911968",
                "miles_per_hour": "50282.9643518384"
            },
            "miss_distance": {
                "astronomical": "0.4194507242",
                "lunar": "163.1663317138",
                "kilometers": "62748934.910277454",
                "miles": "38990380.1452947052"
            },
            "orbiting_body": "Earth"
        }
    ],
    "orbital_data": {
        "orbit_id": "8",
        "orbit_determination_date": "2017-04-06 09:15:41",
        "first_observation_date": "2001-12-17",
        "last_observation_date": "2001-12-19",
        "data_arc_in_days": 2,
        "observations_used": 13,
        "orbit_uncertainty": "9",
        "minimum_orbit_intersection": ".031629",
        "jupiter_tisserand_invariant": "5.220",
        "epoch_osculation": "2452261.5",
        "eccentricity": ".2734857350374121",
        "semi_major_axis": "1.194794451664265",
        "inclination": "20.28191416602181",
        "ascending_node_longitude": "263.9014622162496",
        "orbital_period": "477.0217953777184",
        "perihelion_distance": ".8680352128322417",
        "perihelion_argument": "252.771718939526",
        "aphelion_distance": "1.521553690496288",
        "perihelion_time": "2452319.995239681272",
        "mean_anomaly": "315.8546664129185",
        "mean_motion": ".7546824977146852",
        "equinox": "J2000",
        "orbit_class": {
            "orbit_class_type": "APO",
            "orbit_class_description": "Near-Earth asteroid orbits which cross the Earth’s orbit similar to that of 1862 Apollo",
            "orbit_class_range": "a (semi-major axis) > 1.0 AU; q (perihelion) < 1.017 AU"
        }
    },
    "is_sentry_object": false
}